CCSDS_OMM_VERS,COMMENT,CREATION_DATE,ORIGINATOR,OBJECT_NAME,OBJECT_ID,CENTER_NAME,REF_FRAME,TIME_SYSTEM,MEAN_ELEMENT_THEORY,EPOCH,MEAN_MOTION,ECCENTRICITY,INCLINATION,RA_OF_ASC_NODE,ARG_OF_PERICENTER,MEAN_ANOMALY,EPHEMERIS_TYPE,CLASSIFICATION_TYPE,NORAD_CAT_ID,ELEMENT_SET_NO,REV_AT_EPOCH,BSTAR,MEAN_MOTION_DOT,MEAN_MOTION_DDOT,SEMIMAJOR_AXIS,PERIOD,APOAPSIS,PERIAPSIS,OBJECT_TYPE,RCS_SIZE,COUNTRY_CODE,LAUNCH_DATE,SITE,DECAY_DATE,FILE,GP_ID,TLE_LINE0,TLE_LINE1,TLE_LINE2
"2.0","GENERATED VIA SPACE-TRACK.ORG API","2020-10-06T14:16:09","18 SPCS","COSMOS 1867","1987-060A","EARTH","TEME","UTC","SGP4","2020-10-06T11:58:24.180672","14.31114979","0.00147040","65.0094","89.9468","279.3972","80.5450","0","U","18187","999","73676","-0.00000249300000","-0.00000107","0.0000000000000","7166.143","100.620","798.545","777.471","PAYLOAD","LARGE","CIS","1987-07-10","TTMTR","","2844031","162870807","0 COSMOS 1867","1 18187U 87060A   20280.49889098 -.00000107  00000-0 -24930-5 0  9996","2 18187  65.0094  89.9468 0014704 279.3972  80.5450 14.31114979736761"
"2.0","GENERATED VIA SPACE-TRACK.ORG API","2020-10-06T14:16:09","18 SPCS","IRIDIUM 153","2017-083J","EARTH","TEME","UTC","SGP4","2020-10-06T11:52:01.347456","14.34218317","0.00024110","86.3934","79.5560","68.9686","291.1767","0","U","43078","999","14719","-0.00000140470000","0.00000016","0.0000000000000","7155.802","100.403","779.392","775.942","PAYLOAD","LARGE","US","2017-12-23","AFWTR","","2844002","162870921","0 IRIDIUM 153","1 43078U 17083J   20280.49446004  .00000016  00000-0 -14047-5 0  9993","2 43078  86.3934  79.5560 0002411  68.9686 291.1767 14.34218317147199"
"2.0","GENERATED VIA SPACE-TRACK.ORG API","2020-10-06T18:26:25","18 SPCS","IRIDIUM 153","2017-083J","EARTH","TEME","UTC","SGP4","2020-10-06T03:29:41.377920","14.34218292","0.00025320","86.3935","79.7018","70.0738","290.0730","0","U","43078","999","14714","-0.00000282920000","0.00000012","0.0000000000000","7155.802","100.403","779.479","775.855","PAYLOAD","LARGE","US","2017-12-23","AFWTR","","2844326","162895021","0 IRIDIUM 153","1 43078U 17083J   20280.14561780 +.00000012 +00000-0 -28292-5 0  9997","2 43078 086.3935 079.7018 0002532 070.0738 290.0730 14.34218292147141"
"2.0","GENERATED VIA SPACE-TRACK.ORG API","2020-10-06T18:26:25","18 SPCS","COSMOS 1867","1987-060A","EARTH","TEME","UTC","SGP4","2020-10-06T00:14:00.460320","14.31114972","0.00146960","65.0094","91.3159","279.3788","80.5634","0","U","18187","999","73646","-0.00000202320000","-0.00000106","0.0000000000000","7166.143","100.620","798.539","777.476","PAYLOAD","LARGE","CIS","1987-07-10","TTMTR","","2844326","162884253","0 COSMOS 1867","1 18187U 87060A   20280.00972755 -.00000106 +00000-0 -20232-5 0  9996","2 18187 065.0094 091.3159 0014696 279.3788 080.5634 14.31114972736464"
"2.0","GENERATED VIA SPACE-TRACK.ORG API","2020-10-06T03:18:37","18 SPCS","COSMOS 1867","1987-060A","EARTH","TEME","UTC","SGP4","2020-10-05T20:52:45.113376","14.31114959","0.00146920","65.0094","91.7071","279.3684","80.5739","0","U","18187","999","73644","-0.00000227430000","-0.00000106","0.0000000000000","7166.143","100.620","798.536","777.479","PAYLOAD","LARGE","CIS","1987-07-10","TTMTR","","2843543","162846006","0 COSMOS 1867","1 18187U 87060A   20279.86996659 -.00000106 +00000-0 -22743-5 0  9996","2 18187 065.0094 091.7071 0014692 279.3684 080.5739 14.31114959736441"
"2.0","GENERATED VIA SPACE-TRACK.ORG API","2020-10-06T03:18:37","18 SPCS","IRIDIUM 153","2017-083J","EARTH","TEME","UTC","SGP4","2020-10-05T20:47:49.378272","14.34218340","0.00024370","86.3933","79.8188","69.4970","290.6487","0","U","43078","999","14710","-0.00000030313000","0.00000019","0.0000000000000","7155.802","100.403","779.411","775.923","PAYLOAD","LARGE","US","2017-12-23","AFWTR","","2843543","162858084","0 IRIDIUM 153","1 43078U 17083J   20279.86654373 +.00000019 +00000-0 -30313-6 0  9990","2 43078 086.3933 079.8188 0002437 069.4970 290.6487 14.34218340147107"
"2.0","GENERATED VIA SPACE-TRACK.ORG API","2020-10-05T16:37:24","18 SPCS","COSMOS 1867","1987-060A","EARTH","TEME","UTC","SGP4","2020-10-05T14:10:14.416032","14.31114953","0.00146840","65.0093","92.4895","279.3251","80.6173","0","U","18187","999","73640","-0.00000390480000","-0.00000111","0.0000000000000","7166.143","100.620","798.531","777.485","PAYLOAD","LARGE","CIS","1987-07-10","TTMTR","","2843286","162819114","0 COSMOS 1867","1 18187U 87060A   20279.59044463 -.00000111 +00000-0 -39048-5 0  9995","2 18187 065.0093 092.4895 0014684 279.3251 080.6173 14.31114953736406"
"2.0","GENERATED VIA SPACE-TRACK.ORG API","2020-10-05T14:16:09","18 SPCS","IRIDIUM 153","2017-083J","EARTH","TEME","UTC","SGP4","2020-10-05T10:45:01.400832","14.34218333","0.00024580","86.3933","79.9939","69.6928","290.4531","0","U","43078","999","14704","-0.00000080177000","0.00000018","0.0000000000000","7155.802","100.403","779.426","775.908","PAYLOAD","LARGE","US","2017-12-23","AFWTR","","2843022","162807534","0 IRIDIUM 153","1 43078U 17083J   20279.44793288  .00000018  00000-0 -80177-6 0  9995","2 43078  86.3933  79.9939 0002458  69.6928 290.4531 14.34218333147043"
"2.0","GENERATED VIA SPACE-TRACK.ORG API","2020-10-05T14:26:10","18 SPCS","COSMOS 1867","1987-060A","EARTH","TEME","UTC","SGP4","2020-10-05T05:47:06.047808","14.31114952","0.00146800","65.0093","93.4674","279.3321","80.6103","0","U","18187","999","73658","-0.00000098945000","-0.00000103","0.0000000000000","7166.143","100.620","798.528","777.488","PAYLOAD","LARGE","CIS","1987-07-10","TTMTR","","2843054","162808227","0 COSMOS 1867","1 18187U 87060A   20279.24104222 -.00000103  00000-0 -98945-6 0  9990","2 18187  65.0093  93.4674 0014680 279.3321  80.6103 14.31114952736587"
"2.0","GENERATED VIA SPACE-TRACK.ORG API","2020-10-05T02:15:51","18 SPCS","COSMOS 1867","1987-060A","EARTH","TEME","UTC","SGP4","2020-10-04T21:23:57.680448","14.31114926","0.00146730","65.0093","94.4454","279.2755","80.6670","0","U","18187","999","73630","-0.00000012707000","-0.00000101","0.0000000000000","7166.143","100.620","798.523","777.493","PAYLOAD","LARGE","CIS","1987-07-10","TTMTR","","2842655","162763924","0 COSMOS 1867","1 18187U 87060A   20278.89163982 -.00000101 +00000-0 -12707-6 0  9998","2 18187 065.0093 094.4454 0014673 279.2755 080.6670 14.31114926736306"
"2.0","GENERATED VIA SPACE-TRACK.ORG API","2020-10-05T02:15:51","18 SPCS","IRIDIUM 153","2017-083J","EARTH","TEME","UTC","SGP4","2020-10-04T21:21:17.439552","14.34218342","0.00025880","86.3934","80.2272","70.9684","289.1792","0","U","43078","999","14696","-0.00000270570000","0.00000012","0.0000000000000","7155.802","100.403","779.519","775.815","PAYLOAD","LARGE","US","2017-12-23","AFWTR","","2842655","162777091","0 IRIDIUM 153","1 43078U 17083J   20278.88978518 +.00000012 +00000-0 -27057-5 0  9994","2 43078 086.3934 080.2272 0002588 070.9684 289.1792 14.34218342146961"
"2.0","GENERATED VIA SPACE-TRACK.ORG API","2020-10-04T18:34:11","18 SPCS","COSMOS 1867","1987-060A","EARTH","TEME","UTC","SGP4","2020-10-04T13:00:49.309632","14.31114943","0.00146650","65.0093","95.4233","279.2574","80.6851","0","U","18187","999","73625","0.00000183120000","-0.00000095","0.0000000000000","7166.143","100.620","798.517","777.499","PAYLOAD","LARGE","CIS","1987-07-10","TTMTR","","2842313","162735679","0 COSMOS 1867","1 18187U 87060A   20278.54223738 -.00000095 +00000-0 +18312-5 0  9994","2 18187 065.0093 095.4233 0014665 279.2574 080.6851 14.31114943736256"
"2.0","GENERATED VIA SPACE-TRACK.ORG API","2020-10-04T18:34:11","18 SPCS","IRIDIUM 153","2017-083J","EARTH","TEME","UTC","SGP4","2020-10-04T12:58:57.456192","14.34218340","0.00026030","86.3933","80.3732","71.1738","288.9740","0","U","43078","999","14691","-0.00000411720000","0.00000008","0.0000000000000","7155.802","100.403","779.529","775.804","PAYLOAD","LARGE","US","2017-12-23","AFWTR","","2842313","162749011","0 IRIDIUM 153","1 43078U 17083J   20278.54094278 +.00000008 +00000-0 -41172-5 0  9998","2 43078 086.3933 080.3732 0002603 071.1738 288.9740 14.34218340146916"
"2.0","GENERATED VIA SPACE-TRACK.ORG API","2020-10-04T14:16:09","18 SPCS","IRIDIUM 153","2017-083J","EARTH","TEME","UTC","SGP4","2020-10-04T09:38:01.457664","14.34218332","0.00025050","86.3931","80.4318","70.4177","289.7289","0","U","43078","999","14689","-0.00000009172300","0.00000020","0.0000000000000","7155.802","100.403","779.459","775.874","PAYLOAD","LARGE","US","2017-12-23","AFWTR","","2841908","162721325","0 IRIDIUM 153","1 43078U 17083J   20278.40140576  .00000020  00000-0 -91723-7 0  9999","2 43078  86.3931  80.4318 0002505  70.4177 289.7289 14.34218332146890"
"2.0","GENERATED VIA SPACE-TRACK.ORG API","2020-10-04T14:26:10","18 SPCS","COSMOS 1867","1987-060A","EARTH","TEME","UTC","SGP4","2020-10-04T04:37:40.943136","14.31114918","0.00146600","65.0093","96.4012","279.2701","80.6725","0","U","18187","999","73643","0.00000441230000","-0.00000089","0.0000000000000","7166.143","100.620","798.514","777.502","PAYLOAD","LARGE","CIS","1987-07-10","TTMTR","","2841931","162721877","0 COSMOS 1867","1 18187U 87060A   20278.19283499 -.00000089  00000-0  44123-5 0  9997","2 18187  65.0093  96.4012 0014660 279.2701  80.6725 14.31114918736431"
"2.0","GENERATED VIA SPACE-TRACK.ORG API","2020-10-04T03:06:29","18 SPCS","COSMOS 1867","1987-060A","EARTH","TEME","UTC","SGP4","2020-10-03T21:55:10.249248","14.31114898","0.00146540","65.0092","97.1836","279.2184","80.7242","0","U","18187","999","73616","0.00000651490000","-0.00000083","0.0000000000000","7166.143","100.620","798.509","777.507","PAYLOAD","LARGE","CIS","1987-07-10","TTMTR","","2841547","162699222","0 COSMOS 1867","1 18187U 87060A   20277.91331307 -.00000083 +00000-0 +65149-5 0  9993","2 18187 065.0092 097.1836 0014654 279.2184 080.7242 14.31114898736162"
